COSMOS 1933             
1 18958U 88020A   22136.45419178  .00002022  00000+0  14226-3 0  9995
2 18958  82.5295 171.3235 0009919 298.0472  61.9750 15.04532862839998
SL-3 R/B                
1 19046U 88032B   22136.51384260  .00002217  00000+0  16414-3 0  9994
2 19046  97.3924 136.8796 0036168 351.7995   8.2636 15.03622757841814
SL-16 R/B               
1 19120U 88039B   22136.38358569  .00000128  00000+0  83836-4 0  9994
2 19120  71.0128 133.7327 0023601 312.8536  47.0606 14.19244745760670
COSMOS 1953             
1 19210U 88050A   22136.34235539  .00003786  00000+0  24976-3 0  9996
2 19210  82.5140  92.0239 0010288 255.4892 104.5195 15.07159907826728
SL-8 R/B                
1 19257U 88053B   22136.53946448  .00000276  00000+0  10050-3 0  9998
2 19257  74.0468 157.2859 0021283 320.5762 203.3180 14.37595375776313
COSMOS 1975             
1 19573U 88093A   22136.49418527  .00004587  00000+0  31176-3 0  9991
2 19573  82.5219  47.6750 0012683 308.5648  51.4442 15.06081726808470
SL-14 R/B               
1 19574U 88093B   22136.45404833  .00000412  00000+0  47079-4 0  9996
2 19574  82.5314 267.2865 0020586 323.5475 101.7959 14.83485261794348
SL-16 R/B               
1 19650U 88102B   22136.45842763 -.00000190  00000+0 -72147-4 0  9999
2 19650  70.9996 202.1211 0015543 324.2656  35.7426 14.15825776729672
INTERCOSMOS 24          
1 20261U 89080A   22136.42943165  .00000333  00000+0  10033-3 0  9992
2 20261  82.5994 288.4832 1200825 277.0950  69.5392 12.56343598491636
SL-14 R/B               
1 20262U 89080C   22136.30534821  .00000443  00000+0  12506-3 0  9994
2 20262  82.5942 346.8973 1237211 125.8626 246.3850 12.49057660486108
DELTA 2 R/B(1)          
1 20303U 89085B   22136.56742404  .00017027  00000+0  44427-3 0  9994
2 20303  35.6396 290.5825 0081595 285.3514  73.8211 15.34570709775551
DELTA 1 R/B             
1 20323U 89089B   22136.37331695  .00000256  00000+0  75163-4 0  9993
2 20323  97.0829 183.2244 0071254 194.2317 165.6874 14.48505103693890
ARIANE 40 R/B           
1 20443U 90005H   22136.20742379  .00000251  00000+0  96985-4 0  9993
2 20443  98.4847 204.3648 0011465  65.9062 294.3323 14.38217839692400
DELTA 2 R/B(1)          
1 20453U 90008B   22136.25838987  .00012185  00000+0  63955-3 0  9992
2 20453  35.6229  94.2854 0266739  20.1232 340.9775 14.89309478715100
COSMOS 2058             
1 20465U 90010A   22136.49894406  .00001832  00000+0  14951-3 0  9991
2 20465  82.4869 321.3888 0015451  12.9037 347.2578 14.98798006732849
SL-14 R/B               
1 20466U 90010B   22136.47536198  .00000376  00000+0  44773-4 0  9999
2 20466  82.5006 133.4933 0019867 200.1805 159.8626 14.81528134722076
SL-14 R/B               
1 20511U 90018B   22136.36130987  .00000417  00000+0  51769-4 0  9991
2 20511  82.5232  83.0978 0017253 354.2472 123.8729 14.80181529716345
HST                     
1 20580U 90037B   22136.12723192  .00003142  00000+0  17544-3 0  9998
2 20580  28.4713  22.9825 0002809  49.3482  77.7741 15.10435934561324
SL-16 R/B               
1 20625U 90046B   22136.33220741  .00000236  00000+0  14740-3 0  9999
2 20625  70.9993 343.3494 0016281 262.2408  97.6866 14.14688543651318
COSMOS 2084             
1 20663U 90055A   22136.35619983  .00001978  00000+0  18545-3 0  9994
2 20663  62.7948 357.0478 0114318  46.6170 314.4375 14.92777598727508
SL-6 R/B(2)             
1 20666U 90055D   22136.48974967  .00002207  00000+0  19693-3 0  9998
2 20666  62.7850 271.2055 0128307  69.3597 292.1201 14.93093268728955
SL-8 R/B                
1 20775U 90078B   22136.13612884  .00008734  00000+0  41234-3 0  9990
2 20775  82.9270   9.7744 0553558 187.6841 171.5614 14.39288026605872
SL-8 R/B                
1 21088U 91006B   22136.46404979 -.00000031  00000+0 -46569-4 0  9991
2 21088  82.9393 126.2546 0021898 340.9251 184.0688 13.77196421572283
OKEAN-3                 
1 21397U 91039A   22136.34104301  .00001622  00000+0  15090-3 0  9992
2 21397  82.5234 233.0986 0017280 358.2627   1.8530 14.93617163656386
COSMOS 2151             
1 21422U 91042A   22136.54972924  .00001223  00000+0  11615-3 0  9997
2 21422  82.4994 338.1631 0015481  63.1946 297.0856 14.92612972654928
SL-14 R/B               
1 21423U 91042B   22136.33458277  .00000375  00000+0  46518-4 0  9993
2 21423  82.4937  84.6098 0018744 129.4698 230.8177 14.79927203646878
ERS-1                   
1 21574U 91050A   22136.47889220  .00000199  00000+0  80480-4 0  9990
2 21574  98.6958 104.9217 0033266  15.2671 344.9511 14.37894935615420
ARIANE 40 R/B           
1 21610U 91050F   22136.46400275  .00000291  00000+0  10391-3 0  9995
2 21610  98.3821 206.5937 0002508 344.9345  25.6331 14.41050116618224
INTERCOSMOS 25          
1 21819U 91086A   22136.50759896  .00001153  00000+0  23220-3 0  9999
2 21819  82.5806  67.8277 1514311 224.0099 123.0220 12.05680258328382
SL-8 R/B                
1 21876U 92008B   22136.52598691  .00000089  00000+0  75666-4 0  9992
2 21876  82.9294 223.5440 0036018  66.3465 304.9641 13.75698517517853
SL-8 R/B                
1 21938U 92020B   22136.46509182 -.00000014  00000+0 -30075-4 0  9990
2 21938  82.9276 108.3483 0028130 224.2911 250.9654 13.75302432509613
COSMOS 2219             
1 22219U 92076A   22136.47168524 -.00000228  00000+0 -95525-4 0  9994
2 22219  71.0621  49.5213 0017833 177.0246 183.0986 14.13691575521452
SL-16 R/B               
1 22220U 92076B   22136.56051988  .00000033  00000+0  40593-4 0  9998
2 22220  71.0005 241.9979 0011018  52.8127 318.1439 14.16493732524538
COSMOS 2221             
1 22236U 92080A   22136.46691664  .00001164  00000+0  12258-3 0  9992
2 22236  82.5069 163.9508 0017186 159.0490 201.1436 14.88420977594128
SL-16 R/B               
1 22285U 92093B   22136.21811351  .00000320  00000+0  18960-3 0  9999
2 22285  71.0235  48.6312 0006354 270.4774  89.5620 14.15084954516005
COSMOS 2228             
1 22286U 92094A   22136.44861859  .00001354  00000+0  14208-3 0  9993
2 22286  82.5176 121.0379 0019189 283.2799  76.6279 14.88670864568268
SL-16 R/B               
1 22566U 93016B   22136.49786798 -.00000129  00000+0 -41968-4 0  9997
2 22566  71.0085 260.4640 0012708 281.3374  78.6321 14.15004208505071
COSMOS 2242             
1 22626U 93024A   22136.49721757  .00001276  00000+0  13449-3 0  9991
2 22626  82.5198 149.4178 0017080 283.5291  76.4024 14.88501458572655
SL-16 R/B               
1 22803U 93059B   22136.50280422  .00000038  00000+0  43032-4 0  9994
2 22803  70.9909  68.1472 0017174 180.3836 179.7277 14.16859595482173
ARIANE 40 R/B           
1 22830U 93061H   22136.15886625  .00000188  00000+0  87392-4 0  9998
2 22830  98.6653 199.0249 0012048  76.9219 283.3308 14.31546123494641
COSMOS 2278             
1 23087U 94023A   22136.49090784 -.00000160  00000+0 -59451-4 0  9999
2 23087  71.0548 208.5836 0009638 340.1157  19.9588 14.13868071447853
SL-16 R/B               
1 23088U 94023B   22136.35915362 -.00000096  00000+0 -25074-4 0  9995
2 23088  70.9975 116.2375 0005637 260.3282  99.7203 14.14705790449015
SL-16 R/B               
1 23343U 94074B   22136.14191672  .00000429  00000+0  68041-4 0  9991
2 23343  97.8955 189.7676 0008126  66.4579 350.7797 14.77014233481393
SL-16 R/B               
1 23405U 94077B   22136.45614796 -.00000218  00000+0 -87220-4 0  9992
2 23405  70.9851  42.7813 0001338 186.8511 173.2594 14.15257856419094
ERS-2                   
1 23560U 95021A   22136.45047959  .00009138  00000+0  35537-3 0  9996
2 23560  98.5081  37.4331 0002083 336.5018  23.6122 15.26313223448436
ARIANE 40+ R/B          
1 23561U 95021B   22136.39428034  .00000283  00000+0  10805-3 0  9990
2 23561  98.6253 193.5720 0006544 352.1220  18.5664 14.38134620418884
SL-16 R/B               
1 23705U 95058B   22136.53126055 -.00000219  00000+0 -88137-4 0  9999
2 23705  71.0231 224.2653 0010120  80.9031 279.3236 14.15174229370730
SL-16 R/B               
1 24298U 96051B   22136.58586472  .00000033  00000+0  44007-4 0  9999
2 24298  70.8194 238.0582 0013153  29.3117 330.8738 14.12408429324938
ORBVIEW 2 (SEASTAR)     
1 24883U 97037A   22136.61387055  .00000315  00000+0  12979-3 0  9999
2 24883  98.6756 259.8858 0002221 175.2555 184.8651 14.33726403308748
SL-16 R/B               
1 25400U 98043G   22136.56041427  .00000051  00000+0  39944-4 0  9996
2 25400  98.6716  73.0327 0011033 100.5509 259.6914 14.25511353240473
SL-16 R/B               
1 25407U 98045B   22136.43915827  .00000297  00000+0  17510-3 0  9991
2 25407  71.0120 230.6445 0008152 334.5087  25.5633 14.15859653229870
ISS (ZARYA)             
1 25544U 98067A   22136.47574177  .00010732  00000+0  19945-3 0  9999
2 25544  51.6415 133.6290 0005216 128.1205 332.3674 15.49459369340269
CZ-4B R/B               
1 25732U 99025C   22136.39344985  .00000056  00000+0  48895-4 0  9991
2 25732  98.8569 177.8344 0037670  20.7914 349.7188 14.17726715190715
OKEAN-O                 
1 25860U 99039A   22136.34256271  .00000540  00000+0  84272-4 0  9990
2 25860  98.1417 175.9248 0001715 108.8768 251.2627 14.76919141228517
SL-16 R/B               
1 25861U 99039B   22136.54003699  .00000567  00000+0  84428-4 0  9999
2 25861  98.1812 163.0081 0016931  76.8910 283.4188 14.78801583230782
DELTA 2 R/B             
1 25876U 99041E   22136.52203783  .00000384  00000+0  10431-3 0  9991
2 25876  51.7670  73.7993 0529299 220.5224 135.5146 14.05009762166739
HELIOS 1B               
1 25977U 99064A   22136.55251052  .00000597  00000+0  81062-4 0  9998
2 25977  98.3231 329.4760 0000335 154.1850 205.9379 14.82755665478557
TERRA                   
1 25994U 99068A   22136.55292550  .00000426  00000+0  10433-3 0  9993
2 25994  98.1377 209.2021 0001436  97.2469   9.6910 14.57156561191853
SL-16 R/B               
1 26070U 00006B   22136.44655715 -.00000248  00000+0 -10244-3 0  9991
2 26070  70.9999 146.4798 0015332 149.4425 210.7594 14.15485036151385
